SCD 1                   
1 22490U 93009B   26119.36679823  .00000476  00000+0  79215-4 0  9995
2 22490  24.9681 149.0064 0041853 341.7189  41.4830 14.46098468754047
TECHSAT 1B (GO-32)      
1 25397U 98043D   26119.94777603  .00000069  00000+0  49825-4 0  9998
2 25397  99.0062 111.4935 0001632  36.6482 323.4807 14.24418684444460
SCD 2                   
1 25504U 98060A   26119.44316538  .00000434  00000+0  70271-4 0  9993
2 25504  24.9968  12.7577 0016622 328.6259 192.8146 14.45507096453269
DLR-TUBSAT              
1 25757U 99029B   26119.93222216  .00000110  00000+0  38783-4 0  9995
2 25757  98.6690 113.8516 0014998 133.7363 226.5076 14.52413859426246
TERRA                   
1 25994U 99068A   26119.94993809  .00000423  00000+0  95235-4 0  9997
2 25994  97.9497 171.3996 0003003  48.3471  53.3425 14.61063809402562
MAROC-TUBSAT            
1 27004U 01056D   26119.96839843 -.00000018  00000+0  32542-4 0  9993
2 27004  99.8061 295.9221 0019045 266.3235 210.6978 13.70260440219589
AQUA                    
1 27424U 02022A   26119.94367998  .00000921  00000+0  19331-3 0  9990
2 27424  98.4249  88.2752 0002077  91.4637 323.5876 14.62081495276228
SHIYAN-1 (SY-1)         
1 28220U 04012A   26119.95012831  .00014661  00000+0  46919-3 0  9998
2 28220  97.8705 194.9326 0006064 177.7939 182.3330 15.32505932203702
AURA                    
1 28376U 04026A   26119.91791708  .00000880  00000+0  18824-3 0  9990
2 28376  98.3387  75.9847 0001690  82.8792 277.2600 14.61252845159162
IRS-P5 (CARTOSAT-1)     
1 28649U 05017A   26119.95935114  .00001564  00000+0  16381-3 0  9995
2 28649  97.5344 145.2079 0001234 134.0323 226.0998 14.90922969136633
SINAH 1                 
1 28893U 05043D   26119.94281544  .00000397  00000+0  84865-4 0  9991
2 28893  98.2786 254.0004 0015632  69.7485 290.5396 14.64124001 93462
RESURS-DK 1             
1 29228U 06021A   26119.97485575  .00002716  00000+0  15949-3 0  9997
2 29228  69.9315 104.3341 0003673 335.0599  25.0389 15.13009385 95283
ARIRANG-2 (KOMPSAT-2)   
1 29268U 06031A   26120.00983016  .00000660  00000+0  13253-3 0  9993
2 29268  97.8308 306.7876 0013310 222.8683 288.6372 14.64629819 54421
LAPAN-TUBSAT            
1 29709U 07001A   26119.97219845  .00000733  00000+0  90577-4 0  9993
2 29709  98.1345 118.1124 0012072 350.0709  10.0265 14.85901848 43990
HAIYANG-1B              
1 31113U 07010A   26119.89972591  .00000108  00000+0  57024-4 0  9996
2 31113  98.3477 103.6240 0013313 350.0464  10.0454 14.31014766993725
COSMO-SKYMED 1          
1 31598U 07023A   26119.94163694  .00003638  00000+0  32246-3 0  9998
2 31598  97.8866 311.3964 0001717  97.6794 262.4622 14.96866426 22579
TERRASAR-X              
1 31698U 07026A   26118.32943873  .00001013  00000+0  51412-4 0  9990
2 31698  97.4453 126.7472 0001859  94.5685 265.5762 15.19151326 45657
WORLDVIEW-1 (WV-1)      
1 32060U 07041A   26119.91289850  .00006866  00000+0  28325-3 0  9992
2 32060  97.3889 240.3322 0002153 186.5582 173.5628 15.24364443 35522
YAOGAN-3                
1 32289U 07055A   26119.99897178  .00000369  00000+0  43361-4 0  9996
2 32289  97.8198 150.3509 0001325  96.2278 263.9091 14.90590678998685
COSMO-SKYMED 2          
1 32376U 07059A   26119.95851690  .00000494  00000+0  68545-4 0  9992
2 32376  97.8884 304.2557 0001398  92.0673 268.0700 14.82163368994851
RADARSAT-2              
1 32382U 07061A   26119.96782566 -.00000030  00000+0  53190-5 0  9996
2 32382  98.5794 127.5868 0001234  84.3945 275.7378 14.29983170959064
CARTOSAT-2A             
1 32783U 08021A   26119.95069218  .00000120  00000+0  22908-4 0  9990
2 32783  97.7681 170.2973 0010298 268.9918  91.0114 14.79172888971676
HUANJING 1A (HJ-1A)     
1 33320U 08041A   26119.95376321  .00000706  00000+0  91031-4 0  9999
2 33320  97.6665 107.6670 0017708 300.2308  59.7153 14.83875237951258
HUANJING 1B (HJ-1B)     
1 33321U 08041B   26119.96899718  .00000472  00000+0  63545-4 0  9990
2 33321  97.6507 110.9969 0036157 344.3265  15.6827 14.83228230951267
GEOEYE 1                
1 33331U 08042A   26119.92215766  .00000533  00000+0  10915-3 0  9993
2 33331  98.1246 194.4628 0003736 195.1624 164.9467 14.64679435943086
THEOS                   
1 33396U 08049A   26119.91787743  .00000104  00000+0  68604-4 0  9992
2 33396  98.5612 178.7602 0001287  93.8446 266.2878 14.20126228911110
COSMO-SKYMED 3          
1 33412U 08054A   26119.93122799  .00003128  00000+0  21471-3 0  9992
2 33412  97.8354 337.6980 0017407  71.7159 288.5960 15.06644572949679
YAOGAN-4                
1 33446U 08061A   26119.79454519  .00001106  00000+0  14216-3 0  9992
2 33446  97.9292  53.6710 0013171 224.6080 135.4075 14.83108081938499
GOSAT (IBUKI)           
1 33492U 09002A   26119.86542650  .00000484  00000+0  93812-4 0  9999
2 33492  98.0841 231.5639 0001236  85.8651 274.2695 14.67536824924373
DEIMOS-1                
1 35681U 09041A   26119.96051661  .00000828  00000+0  12963-3 0  9991
2 35681  97.7341 279.2943 0001804  41.2904 318.8442 14.75187229899771
DUBAISAT-1              
1 35682U 09041B   26119.92694694  .00001271  00000+0  19621-3 0  9998
2 35682  97.9975 253.7352 0009554 220.0407 140.0098 14.75035224897983
OCEANSAT-2              
1 35931U 09051A   26119.94639461 -.00000144  00000+0 -72808-4 0  9996
2 35931  98.2301 111.6216 0015862  15.6576 344.5078 13.99649171872587
WORLDVIEW-2 (WV-2)      
1 35946U 09055A   26119.94140093  .00000144  00000+0  62202-4 0  9999
2 35946  98.4689 194.0705 0004499  20.4874 339.6492 14.37929745868717
SMOS                    
1 36036U 09059A   26119.95913070  .00000263  00000+0  97699-4 0  9998
2 36036  98.4433 307.9989 0001203  92.5540 267.5786 14.39747073866519
YAOGAN-7                
1 36110U 09069A   26119.95350470  .00000528  00000+0  80247-4 0  9996
2 36110  98.0132   6.1048 0024243 191.7240 168.3409 14.77960982882501
TANDEM-X                
1 36605U 10030A   26118.39530723  .00001148  00000+0  57871-4 0  9999
2 36605  97.4449 126.8103 0001640  89.1051 271.0371 15.19151516879083
CARTOSAT-2B             
1 36795U 10035A   26119.95500660  .00000311  00000+0  49611-4 0  9998
2 36795  98.0001 170.8022 0011030 354.3806   5.7279 14.78666969852720
YAOGAN-10               
1 36834U 10038A   26119.98495288  .00001943  00000+0  23300-3 0  9995
2 36834  97.9018 143.7710 0001442  86.9006 359.3750 14.85200057850055
COSMO-SKYMED 4          
1 37216U 10060A   26119.97118703  .00000381  00000+0  54363-4 0  9997
2 37216  97.8884 304.2697 0001365  74.8543 285.2821 14.82165089837428
RESOURCESAT-2           
1 37387U 11015A   26119.94728186  .00000136  00000+0  82072-4 0  9992
2 37387  98.7664 187.7164 0011932  41.9295 318.2794 14.21600637779322
HAIYANG-2A              
1 37781U 11043A   26119.94053051 -.00000305  00000+0 -26993-3 0  9992
2 37781  99.3404 123.6334 0006991 179.2153 180.9009 13.75754085740027
RASAT                   
1 37791U 11044D   26119.92966723  .00000583  00000+0  10977-3 0  9992
2 37791  98.0550 212.0694 0020441 349.3843 100.4865 14.68119731786102
SRMSAT                  
1 37841U 11058D   26119.94991742  .00000432  00000+0  90852-4 0  9998
2 37841  19.9736 351.4402 0011734  33.7234  81.6898 14.11564260750997
PLEIADES 1A             
1 38012U 11076F   26119.98844345  .00000136  00000+0  39193-4 0  9991
2 38012  98.1989 195.7351 0000990  83.9386  88.8685 14.58539034764963
ZIYUAN 1-02C (ZY 1-02C) 
1 38038U 11079A   26119.95331001  .00000345  00000+0  12781-3 0  9994
2 38038  98.4099 188.2651 0007703  91.9366  81.0169 14.38173397752279
ARIRANG-3 (KOMPSAT-3)   
1 38338U 12025B   26119.92525497  .00000494  00000+0  10738-3 0  9995
2 38338  98.1139  78.2303 0003997 266.5029  93.5716 14.62162744744293
EXACTVIEW-1 (ADS-1B)    
1 38709U 12039C   26119.93217517  .00000114  00000+0  68724-4 0  9992
2 38709  98.9707 236.2478 0010020 314.3829  45.6528 14.24969739715832
SPOT 6                  
1 38755U 12047A   26119.97060641  .00000130  00000+0  37752-4 0  9995
2 38755  98.2146 187.8374 0001220  87.2046 272.9293 14.58523825726024
PLEIADES 1B             
1 39019U 12068A   26119.92121635  .00000171  00000+0  46620-4 0  9997
2 39019  98.1959 195.6341 0001040  88.9862 271.1456 14.58565293713814
GOKTURK 2               
1 39030U 12073A   26119.93273644  .00001128  00000+0  17278-3 0  9994
2 39030  97.6854 319.7770 0001998  98.5421 261.6016 14.75497058717395
LANDSAT 8               
1 39084U 13008A   26119.95627185  .00000378  00000+0  93909-4 0  9999
2 39084  98.1849 190.8182 0001218 102.5764 257.5571 14.57134753690873
SARAL                   
1 39086U 13009A   26119.92737005  .00000113  00000+0  57343-4 0  9991
2 39086  98.5564 307.1044 0002955  76.4786 283.6727 14.32843962688697
GAOFEN-1                
1 39150U 13018A   26119.94819392  .00000173  00000+0  32064-4 0  9994
2 39150  97.9115 192.9914 0018348  63.7726 296.5367 14.76519053701122
VNREDSAT 1              
1 39160U 13021B   26119.93220610  .00000457  00000+0  93785-4 0  9999
2 39160  97.9125 175.1920 0001271  90.0827 270.0522 14.64955178693226
ARIRANG-5 (KOMPSAT-5)   
1 39227U 13042A   26119.81460319  .00002371  00000+0  17363-3 0  9999
2 39227  97.6196 307.1929 0002534 325.2599  34.8461 15.04514309696585
SKYSAT-A                
1 39418U 13066C   26119.64209533  .00003059  00000+0  17737-3 0  9996
2 39418  97.3858 170.5853 0023063 120.5976 239.7535 15.12688417681147
DUBAISAT-2              
1 39419U 13066D   26119.96072837  .00004169  00000+0  26137-3 0  9994
2 39419  97.4557 111.3860 0010631 189.1790 170.9247 15.09826063679115
GPM-CORE                
1 39574U 14009C   26119.98548457  .00007395  00000+0  16245-3 0  9995
2 39574  64.9704 109.6593 0012132 261.0738  98.9029 15.44711329690367
SENTINEL-1A             
1 39634U 14016A   26119.27037498  .00000240  00000+0  60563-4 0  9995
2 39634  98.1798 127.5148 0001396  81.3498 278.7860 14.59201578642887
